CCSDS_OMM_VERS = 2.0
CREATION_DATE  = 
ORIGINATOR     = 

OBJECT_NAME    = ALOS (DAICHI)
OBJECT_ID      = 2006-002A
CENTER_NAME    = EARTH
REF_FRAME      = TEME
TIME_SYSTEM    = UTC
MEAN_ELEMENT_THEORY = SGP/SGP4

EPOCH          = 2026-02-23T08:13:28.278624
MEAN_MOTION    = 14.69757778
ECCENTRICITY   = .00015133
INCLINATION    = 98.1194
RA_OF_ASC_NODE = 10.3730
ARG_OF_PERICENTER = 55.1395
MEAN_ANOMALY   = 304.9953

EPHEMERIS_TYPE = 0
CLASSIFICATION_TYPE = U
NORAD_CAT_ID   = 28931
ELEMENT_SET_NO = 999
REV_AT_EPOCH   = 7137
BSTAR          = .25255165E-3
MEAN_MOTION_DOT = .1457E-4
MEAN_MOTION_DDOT = 0

CCSDS_OMM_VERS = 2.0
CREATION_DATE  = 
ORIGINATOR     = 

OBJECT_NAME    = H-2A R/B
OBJECT_ID      = 2006-002B
CENTER_NAME    = EARTH
REF_FRAME      = TEME
TIME_SYSTEM    = UTC
MEAN_ELEMENT_THEORY = SGP/SGP4

EPOCH          = 2026-02-23T08:30:31.114656
MEAN_MOTION    = 15.16087328
ECCENTRICITY   = .00521122
INCLINATION    = 98.2387
RA_OF_ASC_NODE = 200.1520
ARG_OF_PERICENTER = 290.5005
MEAN_ANOMALY   = 69.0636

EPHEMERIS_TYPE = 0
CLASSIFICATION_TYPE = U
NORAD_CAT_ID   = 28932
ELEMENT_SET_NO = 999
REV_AT_EPOCH   = 9226
BSTAR          = .5390056E-3
MEAN_MOTION_DOT = .10668E-3
MEAN_MOTION_DDOT = 0

CCSDS_OMM_VERS = 2.0
CREATION_DATE  = 
ORIGINATOR     = 

OBJECT_NAME    = RESURS-DK 1
OBJECT_ID      = 2006-021A
CENTER_NAME    = EARTH
REF_FRAME      = TEME
TIME_SYSTEM    = UTC
MEAN_ELEMENT_THEORY = SGP/SGP4

EPOCH          = 2026-02-23T13:59:16.246752
MEAN_MOTION    = 15.12647930
ECCENTRICITY   = .00029102
INCLINATION    = 69.9314
RA_OF_ASC_NODE = 273.5149
ARG_OF_PERICENTER = 175.8797
MEAN_ANOMALY   = 184.2394

EPHEMERIS_TYPE = 0
CLASSIFICATION_TYPE = U
NORAD_CAT_ID   = 29228
ELEMENT_SET_NO = 999
REV_AT_EPOCH   = 8539
BSTAR          = .13618251E-3
MEAN_MOTION_DOT = .2279E-4
MEAN_MOTION_DDOT = 0

CCSDS_OMM_VERS = 2.0
CREATION_DATE  = 
ORIGINATOR     = 

OBJECT_NAME    = CZ-4B R/B
OBJECT_ID      = 2006-046C
CENTER_NAME    = EARTH
REF_FRAME      = TEME
TIME_SYSTEM    = UTC
MEAN_ELEMENT_THEORY = SGP/SGP4

EPOCH          = 2026-02-23T08:38:10.865472
MEAN_MOTION    = 15.16737765
ECCENTRICITY   = .00322459
INCLINATION    = 97.5624
RA_OF_ASC_NODE = 99.3066
ARG_OF_PERICENTER = 319.3420
MEAN_ANOMALY   = 40.5405

EPHEMERIS_TYPE = 0
CLASSIFICATION_TYPE = U
NORAD_CAT_ID   = 29507
ELEMENT_SET_NO = 999
REV_AT_EPOCH   = 5787
BSTAR          = .26829506E-3
MEAN_MOTION_DOT = .5261E-4
MEAN_MOTION_DDOT = 0

CCSDS_OMM_VERS = 2.0
CREATION_DATE  = 
ORIGINATOR     = 

OBJECT_NAME    = CZ-2C R/B
OBJECT_ID      = 2007-010B
CENTER_NAME    = EARTH
REF_FRAME      = TEME
TIME_SYSTEM    = UTC
MEAN_ELEMENT_THEORY = SGP/SGP4

EPOCH          = 2026-02-23T13:34:10.510752
MEAN_MOTION    = 14.20240800
ECCENTRICITY   = .00584257
INCLINATION    = 98.3974
RA_OF_ASC_NODE = 168.5528
ARG_OF_PERICENTER = 336.3160
MEAN_ANOMALY   = 23.5330

EPHEMERIS_TYPE = 0
CLASSIFICATION_TYPE = U
NORAD_CAT_ID   = 31114
ELEMENT_SET_NO = 999
REV_AT_EPOCH   = 97771
BSTAR          = .78895111E-4
MEAN_MOTION_DOT = .13E-5
MEAN_MOTION_DDOT = 0

CCSDS_OMM_VERS = 2.0
CREATION_DATE  = 
ORIGINATOR     = 

OBJECT_NAME    = COSMO-SKYMED 1
OBJECT_ID      = 2007-023A
CENTER_NAME    = EARTH
REF_FRAME      = TEME
TIME_SYSTEM    = UTC
MEAN_ELEMENT_THEORY = SGP/SGP4

EPOCH          = 2026-02-23T13:20:31.781760
MEAN_MOTION    = 14.96419567
ECCENTRICITY   = .00014109
INCLINATION    = 97.8880
RA_OF_ASC_NODE = 245.4757
ARG_OF_PERICENTER = 84.9767
MEAN_ANOMALY   = 275.1615

EPHEMERIS_TYPE = 0
CLASSIFICATION_TYPE = U
NORAD_CAT_ID   = 31598
ELEMENT_SET_NO = 999
REV_AT_EPOCH   = 1279
BSTAR          = .34458109E-3
MEAN_MOTION_DOT = .3847E-4
MEAN_MOTION_DDOT = 0

CCSDS_OMM_VERS = 2.0
CREATION_DATE  = 
ORIGINATOR     = 

OBJECT_NAME    = COSMOS 2428
OBJECT_ID      = 2007-029A
CENTER_NAME    = EARTH
REF_FRAME      = TEME
TIME_SYSTEM    = UTC
MEAN_ELEMENT_THEORY = SGP/SGP4

EPOCH          = 2026-02-23T10:42:56.770560
MEAN_MOTION    = 14.12941600
ECCENTRICITY   = .00082648
INCLINATION    = 70.9403
RA_OF_ASC_NODE = 233.2400
ARG_OF_PERICENTER = 292.4796
MEAN_ANOMALY   = 67.5450

EPHEMERIS_TYPE = 0
CLASSIFICATION_TYPE = U
NORAD_CAT_ID   = 31792
ELEMENT_SET_NO = 999
REV_AT_EPOCH   = 96208
BSTAR          = .12565502E-3
MEAN_MOTION_DOT = .186E-5
MEAN_MOTION_DDOT = 0

CCSDS_OMM_VERS = 2.0
CREATION_DATE  = 
ORIGINATOR     = 

OBJECT_NAME    = SL-16 R/B
OBJECT_ID      = 2007-029B
CENTER_NAME    = EARTH
REF_FRAME      = TEME
TIME_SYSTEM    = UTC
MEAN_ELEMENT_THEORY = SGP/SGP4

EPOCH          = 2026-02-23T09:58:25.601376
MEAN_MOTION    = 14.14836345
ECCENTRICITY   = .00024721
INCLINATION    = 70.9752
RA_OF_ASC_NODE = 202.3874
ARG_OF_PERICENTER = 280.8732
MEAN_ANOMALY   = 99.6734

EPHEMERIS_TYPE = 0
CLASSIFICATION_TYPE = U
NORAD_CAT_ID   = 31793
ELEMENT_SET_NO = 999
REV_AT_EPOCH   = 96335
BSTAR          = -.43606798E-4
MEAN_MOTION_DOT = -.132E-5
MEAN_MOTION_DDOT = 0

CCSDS_OMM_VERS = 2.0
CREATION_DATE  = 
ORIGINATOR     = 

OBJECT_NAME    = KORONAS-FOTON
OBJECT_ID      = 2009-003A
CENTER_NAME    = EARTH
REF_FRAME      = TEME
TIME_SYSTEM    = UTC
MEAN_ELEMENT_THEORY = SGP/SGP4

EPOCH          = 2026-02-23T08:50:41.295264
MEAN_MOTION    = 15.42930270
ECCENTRICITY   = .00099708
INCLINATION    = 82.4297
RA_OF_ASC_NODE = 290.7635
ARG_OF_PERICENTER = 200.5418
MEAN_ANOMALY   = 159.5430

EPHEMERIS_TYPE = 0
CLASSIFICATION_TYPE = U
NORAD_CAT_ID   = 33504
ELEMENT_SET_NO = 999
REV_AT_EPOCH   = 94353
BSTAR          = .33591959E-3
MEAN_MOTION_DOT = .14835E-3
MEAN_MOTION_DDOT = 0

CCSDS_OMM_VERS = 2.0
CREATION_DATE  = 
ORIGINATOR     = 

OBJECT_NAME    = CZ-2C R/B
OBJECT_ID      = 2011-030B
CENTER_NAME    = EARTH
REF_FRAME      = TEME
TIME_SYSTEM    = UTC
MEAN_ELEMENT_THEORY = SGP/SGP4

EPOCH          = 2026-02-23T15:36:09.883296
MEAN_MOTION    = 14.81159660
ECCENTRICITY   = .00536695
INCLINATION    = 97.8520
RA_OF_ASC_NODE = 12.1975
ARG_OF_PERICENTER = 37.3679
MEAN_ANOMALY   = 140.9216

EPHEMERIS_TYPE = 0
CLASSIFICATION_TYPE = U
NORAD_CAT_ID   = 37731
ELEMENT_SET_NO = 999
REV_AT_EPOCH   = 78801
BSTAR          = .21319676E-3
MEAN_MOTION_DOT = .1645E-4
MEAN_MOTION_DDOT = 0

CCSDS_OMM_VERS = 2.0
CREATION_DATE  = 
ORIGINATOR     = 

OBJECT_NAME    = H-2A R/B
OBJECT_ID      = 2012-025E
CENTER_NAME    = EARTH
REF_FRAME      = TEME
TIME_SYSTEM    = UTC
MEAN_ELEMENT_THEORY = SGP/SGP4

EPOCH          = 2026-02-23T14:34:27.410880
MEAN_MOTION    = 14.95032107
ECCENTRICITY   = .00448789
INCLINATION    = 98.4710
RA_OF_ASC_NODE = 20.5313
ARG_OF_PERICENTER = 0.8397
MEAN_ANOMALY   = 359.2889

EPHEMERIS_TYPE = 0
CLASSIFICATION_TYPE = U
NORAD_CAT_ID   = 38341
ELEMENT_SET_NO = 999
REV_AT_EPOCH   = 74611
BSTAR          = .32674828E-3
MEAN_MOTION_DOT = .3578E-4
MEAN_MOTION_DDOT = 0

CCSDS_OMM_VERS = 2.0
CREATION_DATE  = 
ORIGINATOR     = 

OBJECT_NAME    = SHIJIAN-16 (SJ-16)
OBJECT_ID      = 2013-057A
CENTER_NAME    = EARTH
REF_FRAME      = TEME
TIME_SYSTEM    = UTC
MEAN_ELEMENT_THEORY = SGP/SGP4

EPOCH          = 2026-02-23T14:49:14.432160
MEAN_MOTION    = 14.92277219
ECCENTRICITY   = .00160706
INCLINATION    = 74.9715
RA_OF_ASC_NODE = 211.7253
ARG_OF_PERICENTER = 148.5699
MEAN_ANOMALY   = 211.6453

EPHEMERIS_TYPE = 0
CLASSIFICATION_TYPE = U
NORAD_CAT_ID   = 39358
ELEMENT_SET_NO = 999
REV_AT_EPOCH   = 66940
BSTAR          = .12799763E-3
MEAN_MOTION_DOT = .1281E-4
MEAN_MOTION_DDOT = 0

