ALOS (DAICHI)           
1 28931U 06002A   26054.34268841  .00001457  00000+0  25255-3 0  9992
2 28931  98.1194  10.3730 0001513  55.1395 304.9953 14.69757778 71371
H-2A R/B                
1 28932U 06002B   26054.35452679  .00010668  00000+0  53901-3 0  9991
2 28932  98.2387 200.1520 0052112 290.5005  69.0636 15.16087328 92265
RESURS-DK 1             
1 29228U 06021A   26054.58282693  .00002279  00000+0  13618-3 0  9993
2 29228  69.9314 273.5149 0002910 175.8797 184.2394 15.12647930 85398
CZ-4B R/B               
1 29507U 06046C   26054.35984798  .00005261  00000+0  26830-3 0  9994
2 29507  97.5624  99.3066 0032245 319.3420  40.5405 15.16737765 57872
CZ-2C R/B               
1 31114U 07010B   26054.56539943  .00000130  00000+0  78895-4 0  9993
2 31114  98.3974 168.5528 0058425 336.3160  23.5330 14.20240800977711
COSMO-SKYMED 1          
1 31598U 07023A   26054.55592340  .00003847  00000+0  34458-3 0  9996
2 31598  97.8880 245.4757 0001410  84.9767 275.1615 14.96419567 12797
COSMOS 2428             
1 31792U 07029A   26054.44649040  .00000186  00000+0  12566-3 0  9995
2 31792  70.9403 233.2400 0008264 292.4796  67.5450 14.12941600962080
SL-16 R/B               
1 31793U 07029B   26054.41557409 -.00000132  00000+0 -43607-4 0  9994
2 31793  70.9752 202.3874 0002472 280.8732  99.6734 14.14836345963359
KORONAS-FOTON           
1 33504U 09003A   26054.36853351  .00014835  00000+0  33592-3 0  9993
2 33504  82.4297 290.7635 0009970 200.5418 159.5430 15.42930270943530
CZ-2C R/B               
1 37731U 11030B   26054.65011439  .00001645  00000+0  21320-3 0  9998
2 37731  97.8520  12.1975 0053669  37.3679 140.9216 14.81159660788011
H-2A R/B                
1 38341U 12025E   26054.60726170  .00003578  00000+0  32675-3 0  9993
2 38341  98.4710  20.5313 0044878   0.8397 359.2889 14.95032107746117
SHIJIAN-16 (SJ-16)      
1 39358U 13057A   26054.61752815  .00001281  00000+0  12800-3 0  9991
2 39358  74.9715 211.7253 0016070 148.5699 211.6453 14.92277219669401
